FLOCK 4G-30             
1 62679U 25009BY  26068.70871344  .00013147  00000+0  49475-3 0  9999
2 62679  97.3969 150.6012 0003795 342.4152  17.6955 15.27244548121341
STARLINK-35974          
1 66862U 25281Q   26068.15395687  .00031567  00000+0  11520-2 0  9994
2 66862  43.0029 346.4961 0001821 265.8098  94.2545 15.27571682 16102
